inputName,address,city,state,zipcode,cardType,creditCardNumber,creditCardMonth,creditCardYear,nameOnCard
Naresh1,450-1,GNT1,AP1,522001,visa,410425896,Jan,2023,naresh_a
Naresh2,450-2,GNT2,AP2,522002,Rupay,410425897,Feb,2024,naresh_b
Naresh3,450-3,GNT3,AP3,522003,master,410425898,Mar,2025,naresh_a
Naresh4,450-4,GNT4,AP4,522004,visa,410425899,Apr,2026,naresh_b
Naresh5,450-5,GNT5,AP5,522005,Rupay,410425900,May,2027,naresh_a
Naresh6,450-6,GNT6,AP6,522006,master,410425901,Jun,2028,naresh_b
Naresh7,450-7,GNT7,AP7,522007,visa,410425902,Jul,2029,naresh_a
Naresh8,450-8,GNT8,AP8,522008,Rupay,410425903,Aug,2030,naresh_b
Naresh9,450-9,GNT9,AP9,522009,master,410425904,Sep,2031,naresh_a
Naresh10,450-10,GNT10,AP10,522010,visa,410425905,Oct,2032,naresh_b
Naresh11,450-11,GNT11,AP11,522011,Rupay,410425906,Nov,2033,naresh_a
Naresh12,450-12,GNT12,AP12,522012,master,410425907,Dec,2034,naresh_b
Naresh13,450-13,GNT13,AP13,522013,visa,410425908,Jan,2035,naresh_a
Naresh14,450-14,GNT14,AP14,522014,Rupay,410425909,Feb,2036,naresh_b
Naresh15,450-15,GNT15,AP15,522015,master,410425910,Mar,2037,naresh_a
Naresh16,450-16,GNT16,AP16,522016,visa,410425911,Apr,2038,naresh_b
Naresh17,450-17,GNT17,AP17,522017,Rupay,410425912,May,2039,naresh_a
Naresh18,450-18,GNT18,AP18,522018,master,410425913,Jun,2040,naresh_b
Naresh19,450-19,GNT19,AP19,522019,visa,410425914,Jul,2041,naresh_a
Naresh20,450-20,GNT20,AP20,522020,Rupay,410425915,Aug,2042,naresh_b
Naresh21,450-21,GNT21,AP21,522021,master,410425916,Sep,2043,naresh_a
Naresh22,450-22,GNT22,AP22,522022,visa,410425917,Oct,2044,naresh_b
Naresh23,450-23,GNT23,AP23,522023,Rupay,410425918,Nov,2045,naresh_a
Naresh24,450-24,GNT24,AP24,522024,master,410425919,Dec,2046,naresh_b
Naresh25,450-25,GNT25,AP25,522025,visa,410425920,Jan,2047,naresh_a
Naresh26,450-26,GNT26,AP26,522026,Rupay,410425921,Feb,2048,naresh_b
Naresh27,450-27,GNT27,AP27,522027,master,410425922,Mar,2049,naresh_a
Naresh28,450-28,GNT28,AP28,522028,visa,410425923,Apr,2050,naresh_b
Naresh29,450-29,GNT29,AP29,522029,Rupay,410425924,May,2051,naresh_a
Naresh30,450-30,GNT30,AP30,522030,master,410425925,Jun,2052,naresh_b
Naresh31,450-31,GNT31,AP31,522031,visa,410425926,Jul,2053,naresh_a
Naresh32,450-32,GNT32,AP32,522032,Rupay,410425927,Aug,2054,naresh_b
Naresh33,450-33,GNT33,AP33,522033,master,410425928,Sep,2055,naresh_a
Naresh34,450-34,GNT34,AP34,522034,visa,410425929,Oct,2056,naresh_b
Naresh35,450-35,GNT35,AP35,522035,Rupay,410425930,Nov,2057,naresh_a
Naresh36,450-36,GNT36,AP36,522036,master,410425931,Dec,2058,naresh_b
Naresh37,450-37,GNT37,AP37,522037,visa,410425932,Jan,2059,naresh_a
Naresh38,450-38,GNT38,AP38,522038,Rupay,410425933,Feb,2060,naresh_b
Naresh39,450-39,GNT39,AP39,522039,master,410425934,Mar,2061,naresh_a
Naresh40,450-40,GNT40,AP40,522040,visa,410425935,Apr,2062,naresh_b
Naresh41,450-41,GNT41,AP41,522041,Rupay,410425936,May,2063,naresh_a
Naresh42,450-42,GNT42,AP42,522042,master,410425937,Jun,2064,naresh_b
Naresh43,450-43,GNT43,AP43,522043,visa,410425938,Jul,2065,naresh_a
Naresh44,450-44,GNT44,AP44,522044,Rupay,410425939,Aug,2066,naresh_b
Naresh45,450-45,GNT45,AP45,522045,master,410425940,Sep,2067,naresh_a
Naresh46,450-46,GNT46,AP46,522046,visa,410425941,Oct,2068,naresh_b
Naresh47,450-47,GNT47,AP47,522047,Rupay,410425942,Nov,2069,naresh_a
Naresh48,450-48,GNT48,AP48,522048,master,410425943,Dec,2070,naresh_b
Naresh49,450-49,GNT49,AP49,522049,visa,410425944,Jan,2071,naresh_a
Naresh50,450-50,GNT50,AP50,522050,Rupay,410425945,Feb,2072,naresh_b
